[{"OBJECT_NAME":"STARLINK-36428","OBJECT_ID":"2026-003AE","EPOCH":"2026-03-09T11:36:42.569856","MEAN_MOTION":15.27610726,"ECCENTRICITY":0.00012272,"INCLINATION":43.0027,"RA_OF_ASC_NODE":228.1124,"ARG_OF_PERICENTER":240.5697,"MEAN_ANOMALY":119.5033,"EPHEMERIS_TYPE":0,"CLASSIFICATION_TYPE":"U","NORAD_CAT_ID":67362,"ELEMENT_SET_NO":999,"REV_AT_EPOCH":879,"BSTAR":0.001354714,"MEAN_MOTION_DOT":0.0003724,"MEAN_MOTION_DDOT":0},{"OBJECT_NAME":"CXBN","OBJECT_ID":"2012-048E","EPOCH":"2026-03-09T15:19:34.514688","MEAN_MOTION":15.19824857,"ECCENTRICITY":0.0107387,"INCLINATION":64.6612,"RA_OF_ASC_NODE":146.5396,"ARG_OF_PERICENTER":203.7806,"MEAN_ANOMALY":155.8339,"EPHEMERIS_TYPE":0,"CLASSIFICATION_TYPE":"U","NORAD_CAT_ID":38762,"ELEMENT_SET_NO":999,"REV_AT_EPOCH":10314,"BSTAR":0.00060054,"MEAN_MOTION_DOT":0.00014901,"MEAN_MOTION_DDOT":0}]
